[{"OBJECT_NAME":"STARLINK-36103","OBJECT_ID":"2025-288AC","EPOCH":"2026-03-09T03:56:44.559168","MEAN_MOTION":15.27565504,"ECCENTRICITY":0.00019003,"INCLINATION":43.0021,"RA_OF_ASC_NODE":26.7029,"ARG_OF_PERICENTER":273.699,"MEAN_ANOMALY":86.3644,"EPHEMERIS_TYPE":0,"CLASSIFICATION_TYPE":"U","NORAD_CAT_ID":66985,"ELEMENT_SET_NO":999,"REV_AT_EPOCH":1520,"BSTAR":0.00097588876,"MEAN_MOTION_DOT":0.00026678,"MEAN_MOTION_DDOT":0},{"OBJECT_NAME":"TRANSPORTER-1 OBJECT AA","OBJECT_ID":"2021-006AA","EPOCH":"2026-03-09T22:58:14.761920","MEAN_MOTION":15.29982294,"ECCENTRICITY":0.00086604,"INCLINATION":97.2381,"RA_OF_ASC_NODE":112.457,"ARG_OF_PERICENTER":185.709,"MEAN_ANOMALY":174.4054,"EPHEMERIS_TYPE":0,"CLASSIFICATION_TYPE":"U","NORAD_CAT_ID":47437,"ELEMENT_SET_NO":999,"REV_AT_EPOCH":28414,"BSTAR":0.0002197941,"MEAN_MOTION_DOT":6.312e-5,"MEAN_MOTION_DDOT":0}]
